[ {"name": "STARLINK-11571 [DTC]", "line1": "1 62986U 25031F   26169.25642637  .00147408  00000+0  11298-2 0  9997", "line2": "2 62986  43.0020 114.8571 0002647 276.2162  83.8404 15.70884973 78569"}, {"name": "STARLINK-11539 [DTC]", "line1": "1 62987U 25031G   26169.53731159  .00215768  00000+0  16385-2 0  9994", "line2": "2 62987  43.0015 113.5373 0001225 276.6987  83.3741 15.70886600 78603"}, {"name": "STARLINK-11542 [DTC]", "line1": "1 62988U 25031H   26169.20347014  .00221480  00000+0  16797-2 0  9997", "line2": "2 62988  42.9995 115.3251 0001035 316.7555  43.3231 15.70900032 78527"}, {"name": "STARLINK-11573 [DTC]", "line1": "1 62989U 25031J   26169.55323691  .00137930  00000+0  10530-2 0  9996", "line2": "2 62989  43.0019 113.6629 0002392 286.2246  73.8358 15.71011832 78577"}, {"name": "STARLINK-11572 [DTC]", "line1": "1 62990U 25031K   26169.20968388  .00147764  00000+0  11324-2 0  9996", "line2": "2 62990  43.0000 115.3732 0002520 290.4530  69.6067 15.70886445 78556"}, {"name": "STARLINK-11583 [DTC]", "line1": "1 62991U 25031L   26169.55854123  .00132918  00000+0  10242-2 0  9999", "line2": "2 62991  43.0019 113.7061 0001121  38.9920 321.1028 15.70809639 78618"}, {"name": "STARLINK-11570 [DTC]", "line1": "1 62992U 25031M   26169.56386264  .00153513  00000+0  11767-2 0  9994", "line2": "2 62992  43.0003 113.7475 0000439  25.7149 334.3741 15.70863902 78597"}, {"name": "STARLINK-11576 [DTC]", "line1": "1 62993U 25031N   26169.54792537  .00144536  00000+0  11069-2 0  9997", "line2": "2 62993  43.0020 113.6202 0002350 273.3557  86.7042 15.70915056 78592"}, {"name": "STARLINK-32899", "line1": "1 62994U 25031P   26169.40355063  .00013254  00000+0  48986-3 0  9993", "line2": "2 62994  43.0027 294.9446 0001275 246.6542 113.4176 15.27610343 76491"}, {"name": "STARLINK-32819", "line1": "1 62995U 25031Q   26169.69706984  .00016279  00000+0  59940-3 0  9999", "line2": "2 62995  43.0012 292.8438 0001464 276.0247  84.0438 15.27600626 76546"}, {"name": "STARLINK-32703", "line1": "1 62996U 25031R   26169.39841036  .00012099  00000+0  44814-3 0  9995", "line2": "2 62996  43.0033 294.9067 0001805 270.2294  89.8351 15.27605055 76490"}, {"name": "STARLINK-32881", "line1": "1 62997U 25031S   26169.62140251  .00019719  00000+0  72394-3 0  9993", "line2": "2 62997  43.0013 293.1351 0001677 279.2266  80.8396 15.27591209 76531"}, {"name": "STARLINK-32898", "line1": "1 62998U 25031T   26169.39198328  .00016164  00000+0  59535-3 0  9999", "line2": "2 62998  43.0043 294.8580 0001417 256.6764 103.3930 15.27595199 76493"}, {"name": "STARLINK-32658", "line1": "1 62999U 25031U   26169.69064499  .00019590  00000+0  71953-3 0  9998", "line2": "2 62999  43.0002 292.7951 0001322 266.9700  93.1001 15.27578444 76542"}, {"name": "STARLINK-32673", "line1": "1 63000U 25031V   26169.64325108  .00012980  00000+0  48022-3 0  9991", "line2": "2 63000  43.0013 293.2981 0001581 275.7087  84.3585 15.27590969 76534"}, {"name": "STARLINK-32437", "line1": "1 63001U 25031W   26169.40740639  .00013018  00000+0  48136-3 0  9995", "line2": "2 63001  43.0014 294.9740 0001324 253.8399 106.2307 15.27605929 76499"}, {"name": "STARLINK-11448 [DTC]", "line1": "1 63005U 25032A   26169.50588262  .00315997  00000+0  23873-2 0  9994", "line2": "2 63005  43.0001 307.2933 0001494 275.5575  84.5122 15.70703092 78084"}, {"name": "STARLINK-11553 [DTC]", "line1": "1 63006U 25032B   26169.68614241  .00159587  00000+0  12234-2 0  9991", "line2": "2 63006  42.9977 306.9503 0000494 216.1938 143.8896 15.70840501 78092"}, {"name": "STARLINK-11526 [DTC]", "line1": "1 63007U 25032C   26169.66671295 -.00068643  00000+0 -53558-3 0  9991", "line2": "2 63007  42.9999 306.2503 0001607 263.4726 317.2392 15.70852355  5994"}, {"name": "STARLINK-11405 [DTC]", "line1": "1 63008U 25032D   26169.67643289  .00041109  00000+0  32171-3 0  9999", "line2": "2 63008  43.0018 306.8734 0002327 279.0628  80.9976 15.70880927 77947"}, {"name": "STARLINK-11586 [DTC]", "line1": "1 63009U 25032E   26169.65959670  .00064286  00000+0  50056-3 0  9995", "line2": "2 63009  43.0006 306.7374 0001914 270.6758  89.3890 15.70842426 78093"}, {"name": "STARLINK-11574 [DTC]", "line1": "1 63010U 25032F   26169.60662410  .00249561  00000+0  18909-2 0  9996", "line2": "2 63010  43.0001 307.2070 0001962 279.3127  80.7519 15.70834937 78088"}, {"name": "STARLINK-11580 [DTC]", "line1": "1 63011U 25032G   26169.45291128  .00151772  00000+0  11652-2 0  9998", "line2": "2 63011  42.9985 307.7528 0001449 206.5917 153.4877 15.70832166 77918"}, {"name": "STARLINK-11449 [DTC]", "line1": "1 63012U 25032H   26169.65428808  .00157492  00000+0  12089-2 0  9998", "line2": "2 63012  43.0020 306.6924 0002185 271.0755  88.9862 15.70816987 78093"}, {"name": "STARLINK-11577 [DTC]", "line1": "1 63013U 25032J   26169.60132287  .00219185  00000+0  16714-2 0  9994", "line2": "2 63013  43.0007 307.1607 0001744 263.3288  96.7381 15.70777117 78081"}, {"name": "STARLINK-11578 [DTC]", "line1": "1 63014U 25032K   26169.68083912  .00363524  00000+0  27197-2 0  9997", "line2": "2 63014  43.0001 306.9056 0001170 271.7536  88.3197 15.70793467 78047"}, {"name": "STARLINK-11541 [DTC]", "line1": "1 63015U 25032L   26169.51119191  .00126753  00000+0  97653-3 0  9995", "line2": "2 63015  43.0011 307.3291 0005585 292.9466  67.0812 15.70818831 78081"}, {"name": "STARLINK-11545 [DTC]", "line1": "1 63016U 25032M   26169.52180823  .00304283  00000+0  23013-2 0  9991", "line2": "2 63016  42.9990 307.4171 0000935 263.1177  96.9584 15.70711966 78085"}, {"name": "STARLINK-11400 [DTC]", "line1": "1 63017U 25032N   26169.33335647 -.00079011  00000+0 -61778-3 0  9998", "line2": "2 63017  43.0002 308.9236 0001600 255.8187 326.9524 15.70852121  5796"}, {"name": "STARLINK-32870", "line1": "1 63018U 25032P   26169.61024718  .00012590  00000+0  46624-3 0  9994", "line2": "2 63018  43.0033 126.1744 0000308 297.0898  62.9922 15.27580462 76050"}]