OBJECT_NAME,OBJECT_ID,EPOCH,MEAN_MOTION,ECCENTRICITY,INCLINATION,RA_OF_ASC_NODE,ARG_OF_PERICENTER,MEAN_ANOMALY,EPHEMERIS_TYPE,CLASSIFICATION_TYPE,NORAD_CAT_ID,ELEMENT_SET_NO,REV_AT_EPOCH,BSTAR,MEAN_MOTION_DOT,MEAN_MOTION_DDOT
STARLINK-11571 [DTC],2025-031F,2026-06-18T06:09:15.238368,15.70884973,.0002647,43.0020,114.8571,276.2162,83.8404,0,U,62986,999,7856,.11298E-2,.147408E-2,0
STARLINK-11539 [DTC],2025-031G,2026-06-18T12:53:43.721376,15.70886600,.0001225,43.0015,113.5373,276.6987,83.3741,0,U,62987,999,7860,.16385E-2,.215768E-2,0
STARLINK-11542 [DTC],2025-031H,2026-06-18T04:52:59.820096,15.70900032,.0001035,42.9995,115.3251,316.7555,43.3231,0,U,62988,999,7852,.16797E-2,.22148E-2,0
STARLINK-11573 [DTC],2025-031J,2026-06-18T13:16:39.669024,15.71011832,.0002392,43.0019,113.6629,286.2246,73.8358,0,U,62989,999,7857,.1053E-2,.13793E-2,0
STARLINK-11572 [DTC],2025-031K,2026-06-18T05:01:56.687232,15.70886445,.000252,43.0000,115.3732,290.4530,69.6067,0,U,62990,999,7855,.11324E-2,.147764E-2,0
STARLINK-11583 [DTC],2025-031L,2026-06-18T13:24:17.962272,15.70809639,.0001121,43.0019,113.7061,38.9920,321.1028,0,U,62991,999,7861,.10242E-2,.132918E-2,0
STARLINK-11570 [DTC],2025-031M,2026-06-18T13:31:57.732096,15.70863902,.0000439,43.0003,113.7475,25.7149,334.3741,0,U,62992,999,7859,.11767E-2,.153513E-2,0
STARLINK-11576 [DTC],2025-031N,2026-06-18T13:09:00.751968,15.70915056,.000235,43.0020,113.6202,273.3557,86.7042,0,U,62993,999,7859,.11069E-2,.144536E-2,0
STARLINK-32899,2025-031P,2026-06-18T09:41:06.774432,15.27610343,.0001275,43.0027,294.9446,246.6542,113.4176,0,U,62994,999,7649,.48986E-3,.13254E-3,0
STARLINK-32819,2025-031Q,2026-06-18T16:43:46.834176,15.27600626,.0001464,43.0012,292.8438,276.0247,84.0438,0,U,62995,999,7654,.5994E-3,.16279E-3,0
STARLINK-32703,2025-031R,2026-06-18T09:33:42.655104,15.27605055,.0001805,43.0033,294.9067,270.2294,89.8351,0,U,62996,999,7649,.44814E-3,.12099E-3,0
STARLINK-32881,2025-031S,2026-06-18T14:54:49.176864,15.27591209,.0001677,43.0013,293.1351,279.2266,80.8396,0,U,62997,999,7653,.72394E-3,.19719E-3,0
STARLINK-32898,2025-031T,2026-06-18T09:24:27.355392,15.27595199,.0001417,43.0043,294.8580,256.6764,103.3930,0,U,62998,999,7649,.59535E-3,.16164E-3,0
STARLINK-32658,2025-031U,2026-06-18T16:34:31.727136,15.27578444,.0001322,43.0002,292.7951,266.9700,93.1001,0,U,62999,999,7654,.71953E-3,.1959E-3,0
STARLINK-32673,2025-031V,2026-06-18T15:26:16.893312,15.27590969,.0001581,43.0013,293.2981,275.7087,84.3585,0,U,63000,999,7653,.48022E-3,.1298E-3,0
STARLINK-32437,2025-031W,2026-06-18T09:46:39.912096,15.27605929,.0001324,43.0014,294.9740,253.8399,106.2307,0,U,63001,999,7649,.48136E-3,.13018E-3,0
STARLINK-11448 [DTC],2025-032A,2026-06-18T12:08:28.258368,15.70703092,.0001494,43.0001,307.2933,275.5575,84.5122,0,U,63005,999,7808,.23873E-2,.315997E-2,0
STARLINK-11553 [DTC],2025-032B,2026-06-18T16:28:02.704224,15.70840501,.0000494,42.9977,306.9503,216.1938,143.8896,0,U,63006,999,7809,.12234E-2,.159587E-2,0
STARLINK-11526 [DTC],2025-032C,2026-06-18T16:00:03.998880,15.70852355,.0001607,42.9999,306.2503,263.4726,317.2392,0,U,63007,999,599,-.53558E-3,-.68643E-3,0
STARLINK-11405 [DTC],2025-032D,2026-06-18T16:14:03.801696,15.70880927,.0002327,43.0018,306.8734,279.0628,80.9976,0,U,63008,999,7794,.32171E-3,.41109E-3,0
STARLINK-11586 [DTC],2025-032E,2026-06-18T15:49:49.154880,15.70842426,.0001914,43.0006,306.7374,270.6758,89.3890,0,U,63009,999,7809,.50056E-3,.64286E-3,0
STARLINK-11574 [DTC],2025-032F,2026-06-18T14:33:32.322240,15.70834937,.0001962,43.0001,307.2070,279.3127,80.7519,0,U,63010,999,7808,.18909E-2,.249561E-2,0
STARLINK-11580 [DTC],2025-032G,2026-06-18T10:52:11.534592,15.70832166,.0001449,42.9985,307.7528,206.5917,153.4877,0,U,63011,999,7791,.11652E-2,.151772E-2,0
STARLINK-11449 [DTC],2025-032H,2026-06-18T15:42:10.490112,15.70816987,.0002185,43.0020,306.6924,271.0755,88.9862,0,U,63012,999,7809,.12089E-2,.157492E-2,0
STARLINK-11577 [DTC],2025-032J,2026-06-18T14:25:54.295968,15.70777117,.0001744,43.0007,307.1607,263.3288,96.7381,0,U,63013,999,7808,.16714E-2,.219185E-2,0
STARLINK-11578 [DTC],2025-032K,2026-06-18T16:20:24.499968,15.70793467,.000117,43.0001,306.9056,271.7536,88.3197,0,U,63014,999,7804,.27197E-2,.363524E-2,0
STARLINK-11541 [DTC],2025-032L,2026-06-18T12:16:06.981024,15.70818831,.0005585,43.0011,307.3291,292.9466,67.0812,0,U,63015,999,7808,.97653E-3,.126753E-2,0
STARLINK-11545 [DTC],2025-032M,2026-06-18T12:31:24.231072,15.70711966,.0000935,42.9990,307.4171,263.1177,96.9584,0,U,63016,999,7808,.23013E-2,.304283E-2,0
STARLINK-11400 [DTC],2025-032N,2026-06-18T08:00:01.999008,15.70852121,.00016,43.0002,308.9236,255.8187,326.9524,0,U,63017,999,579,-.61778E-3,-.79011E-3,0
STARLINK-32870,2025-032P,2026-06-18T14:38:45.356352,15.27580462,.0000308,43.0033,126.1744,297.0898,62.9922,0,U,63018,999,7605,.46624E-3,.1259E-3,0
